OBJECT_NAME,OBJECT_ID,EPOCH,MEAN_MOTION,ECCENTRICITY,INCLINATION,RA_OF_ASC_NODE,ARG_OF_PERICENTER,MEAN_ANOMALY,EPHEMERIS_TYPE,CLASSIFICATION_TYPE,NORAD_CAT_ID,ELEMENT_SET_NO,REV_AT_EPOCH,BSTAR,MEAN_MOTION_DOT,MEAN_MOTION_DDOT
HAWK-5A,2022-057AB,2026-07-22T05:56:25.907712,15.52502529,.00029202,97.6636,4.3983,303.1478,56.9494,0,U,52757,999,23178,.32081569E-3,.19569E-3,0
HAWK-6B,2023-011A,2026-07-22T03:09:53.758080,15.23197574,.000457,40.4982,148.2046,275.3394,84.6894,0,U,55324,999,19317,.18622229E-3,.4304E-4,0
HAWK-6C,2023-011C,2026-07-21T20:51:19.904832,15.23194738,.00050785,40.4970,146.5736,268.9600,91.0627,0,U,55326,999,19314,.17819172E-3,.411E-4,0
HAWK-6A,2023-011D,2026-07-21T20:51:23.097312,15.23195538,.00047868,40.4981,148.2012,266.0368,93.9894,0,U,55327,999,19314,.18251546E-3,.4214E-4,0
HAWK-7A,2023-054P,2026-07-22T03:45:45.925920,15.27682728,.00009388,97.2651,89.6046,277.3982,82.7151,0,U,56191,999,18236,.20583583E-3,.5496E-4,0
HAWK-7B,2023-054R,2026-07-22T03:45:39.938400,15.27685006,.00005918,97.2682,87.8804,358.5851,1.5387,0,U,56193,999,18236,.18968325E-3,.5059E-4,0
HAWK-7C,2023-054Y,2026-07-22T03:45:28.982016,15.27683474,.00002998,97.2656,88.6385,279.0059,81.1147,0,U,56200,999,18236,.20542032E-3,.5485E-4,0
