HAWK-5A                 
1 52757U 22057AB  26203.24752208  .00019569  00000+0  32082-3 0  9992
2 52757  97.6636   4.3983 0002920 303.1478  56.9494 15.52502529231785
HAWK-6B                 
1 55324U 23011A   26203.13187220  .00004304  00000+0  18622-3 0  9995
2 55324  40.4982 148.2046 0004570 275.3394  84.6894 15.23197574193176
HAWK-6C                 
1 55326U 23011C   26202.86898038  .00004110  00000+0  17819-3 0  9994
2 55326  40.4970 146.5736 0005078 268.9600  91.0627 15.23194738193146
HAWK-6A                 
1 55327U 23011D   26202.86901733  .00004214  00000+0  18252-3 0  9999
2 55327  40.4981 148.2012 0004786 266.0368  93.9894 15.23195538193146
HAWK-7A                 
1 56191U 23054P   26203.15678155  .00005496  00000+0  20584-3 0  9992
2 56191  97.2651  89.6046 0000938 277.3982  82.7151 15.27682728182367
HAWK-7B                 
1 56193U 23054R   26203.15671225  .00005059  00000+0  18968-3 0  9993
2 56193  97.2682  87.8804 0000591 358.5851   1.5387 15.27685006182369
HAWK-7C                 
1 56200U 23054Y   26203.15658544  .00005485  00000+0  20542-3 0  9995
2 56200  97.2656  88.6385 0000299 279.0059  81.1147 15.27683474182369
